GORIZONT 1 [-]          
1 11158U 78118A   22223.39933502 -.00000099  00000+0  00000+0 0  9993
2 11158  11.0884 203.2770 3470296 284.1612  39.9866  1.00304366108841
GORIZONT 2 [-]          
1 11440U 79062A   22222.85326179  .00000041  00000+0  00000+0 0  9998
2 11440   9.1619 301.2099 0002705 236.2030 148.7903  1.00273673123920
GORIZONT 3 [-]          
1 11648U 79105A   22222.85657778  .00000076  00000+0  00000+0 0  9996
2 11648   9.3212 302.6417 0014126 210.9739 167.6603  1.00330755108380
GORIZONT 4 [-]          
1 11841U 80049A   22223.15049304 -.00000174  00000+0  00000+0 0  9994
2 11841  10.4700 308.3998 0001124 171.1408 258.1362  0.98631332219654
GORIZONT 5 [-]          
1 13092U 82020A   22222.83348584  .00000030  00000+0  00000+0 0  9991
2 13092  11.4608 313.6835 0034440 210.9625 160.8208  0.98530129107747
GORIZONT 6 [-]          
1 13624U 82103A   22223.58020906  .00000081  00000+0  00000+0 0  9998
2 13624  10.3795 313.7089 0003122 174.4161 228.8431  1.00274363106850
GORIZONT 7 [-]          
1 14160U 83066A   22222.96998212 -.00000089  00000+0  00000+0 0  9997
2 14160  12.0372 323.0314 0008346 314.4305  62.4610  0.98348289140922
GORIZONT 8 [-]          
1 14532U 83118A   22223.23382706 -.00000057  00000+0  00000+0 0  9999
2 14532  12.2090 324.8761 0030891 149.2418 207.5506  0.98269121106686
GORIZONT 9 [-]          
1 14940U 84041A   22222.77201917 -.00000214  00000+0  00000+0 0  9995
2 14940  11.4026 322.9252 0004816 201.1541 161.4128  1.00232728107840
GORIZONT 10 [-]         
1 15144U 84078A   22223.50586135  .00000115  00000+0  00000+0 0  9991
2 15144  11.4950 323.9446 0001522 135.5094 253.0990  1.00201168140489
GORIZONT 11 [-]         
1 15484U 85007A   22223.44077205 -.00000170  00000+0  00000+0 0  9999
2 15484  11.6752 325.9181 0005126 149.2113  81.8514  1.00394883138533
GORIZONT 12 [-]         
1 16769U 86044A   22223.34285573 -.00000071  00000+0  00000+0 0  9996
2 16769  12.2887 331.2782 0001955 176.5213   7.7567  1.00196993133164
GORIZONT 13 [-]         
1 17083U 86090A   22223.58615763 -.00000180  00000+0  00000+0 0  9992
2 17083  14.1587 338.4282 0012076 343.5167   3.9764  0.96727432105041
GORIZONT 14 [-]         
1 17969U 87040A   22223.58365427 -.00000158  00000+0  00000+0 0  9995
2 17969  13.1125 329.8497 0032599 172.2504 217.8944  0.97659971106137
GORIZONT 15 [-]         
1 19017U 88028A   22222.16766229 -.00000171  00000+0  00000+0 0  9991
2 19017  14.4451 341.2776 0038880 154.3182 209.0500  0.97828704105748
GORIZONT 16 [-]         
1 19397U 88071A   22223.23867657 -.00000293  00000+0  00000+0 0  9991
2 19397  13.2957 339.9533 0014795  68.0520 296.7713  0.99975536124184
GORIZONT 17 [-]         
1 19765U 89004A   22223.51521137  .00000017  00000+0  00000+0 0  9991
2 19765  13.8382 343.2899 0024677 131.6867 248.7906  0.99065762121656
GORIZONT 18 [-]         
1 20107U 89052A   22223.52238097  .00000062  00000+0  00000+0 0  9997
2 20107  13.8801 344.5513 0032706 318.5841  68.1696  0.99399624120444
GORIZONT 19 [-]         
1 20263U 89081A   22222.97347014  .00000077  00000+0  00000+0 0  9996
2 20263  13.6112 343.7485 0003839 185.4180 189.6437  1.00332793 33241
GORIZONT 20 [-]         
1 20659U 90054A   22222.83958987 -.00000309  00000+0  00000+0 0  9998
2 20659  14.0445 346.5780 0007218 160.6162 211.2246  1.00279205117592
GORIZONT 21 [-]         
1 20923U 90094A   22223.37505792 -.00000191  00000+0  00000+0 0  9997
2 20923  14.0563 347.3439 0005029 188.1906 182.8973  1.00387560116353
GORIZONT 22 [-]         
1 20953U 90102A   22223.26805814 -.00000303  00000+0  00000+0 0  9991
2 20953  14.0146 347.7120 0002848  41.3855 167.3298  1.00285101116270
GORIZONT 23 [-]         
1 21533U 91046A   22223.47579932  .00000015  00000+0  00000+0 0  9995
2 21533  14.7699 351.8496 0002064 330.3672 217.9827  0.98907252 32782
GORIZONT 24 [-]         
1 21759U 91074A   22223.58573851 -.00000257  00000+0  00000+0 0  9991
2 21759  14.9221 353.7475 0017257 220.4506 111.6695  0.98445738111112
GORIZONT 25 [-]         
1 21922U 92017A   22222.97155174  .00000099  00000+0  00000+0 0  9990
2 21922  14.4654 353.0899 0030036  82.8951 272.2922  0.99848382110890
GORIZONT 26 [-]         
1 22041U 92043A   22223.30896007 -.00000192  00000+0  00000+0 0  9992
2 22041  14.6329 355.0836 0029864 231.4317 136.4879  0.99242655109523
GORIZONT 27 [-]         
1 22245U 92082A   22223.33974181 -.00000192  00000+0  00000+0 0  9994
2 22245  14.5501 354.6847 0011669  17.5106 155.5358  1.00140381113031
GORIZONT 28 [-]         
1 22880U 93069A   22223.37427312 -.00000068  00000+0  00000+0 0  9990
2 22880  14.6856 358.5402 0035853 130.8356 224.7407  0.99648206105117
GORIZONT 29 [-]         
1 22907U 93072A   22223.08729878 -.00000009  00000+0  00000+0 0  9999
2 22907  14.5983 358.0093 0008948 354.8873   5.2883  1.00157034105088
GORIZONT 30 [-]         
1 23108U 94030A   22223.28116031 -.00000281  00000+0  00000+0 0  9993
2 23108  14.6100 358.9158 0002962 136.7066  68.8908  1.00288058103369
GORIZONT 31 [-]         
1 23775U 96005A   22223.37584272 -.00000147  00000+0  00000+0 0  9994
2 23775  14.5120   5.1154 0018355 197.1214 160.2695  0.99883988 97009
GORIZONT 32 [-]         
1 23880U 96034A   22223.51967918  .00000069  00000+0  00000+0 0  9993
2 23880  14.4598   5.6340 0008232   1.7377   0.6194  1.00158541 95955
GORIZONT 33 [-]         
1 26372U 00029A   22223.25118838 -.00000269  00000+0  00000+0 0  9994
2 26372  13.1581  16.7972 0004804  96.2563 261.7766  1.00321578 81326
